{
    "type": "FeatureCollection",
    "features": [
        {
            "type": "Feature",
            "geometry": {
                "type": "Polygon",
                "coordinates": [
                    [
                        [
                            21.884614,
                            43.290354
                        ],
                        [
                            21.883865,
                            43.290051
                        ],
                        [
                            21.882978,
                            43.289668
                        ],
                        [
                            21.883339,
                            43.289486
                        ],
                        [
                            21.884198,
                            43.288719
                        ],
                        [
                            21.884448,
                            43.288235
                        ],
                        [
                            21.884697,
                            43.287347
                        ],
                        [
                            21.883949,
                            43.28658
                        ],
                        [
                            21.884531,
                            43.28551
                        ],
                        [
                            21.885501,
                            43.284622
                        ],
                        [
                            21.887193,
                            43.283875
                        ],
                        [
                            21.88894,
                            43.28333
                        ],
                        [
                            21.890243,
                            43.28335
                        ],
                        [
                            21.891491,
                            43.283915
                        ],
                        [
                            21.891186,
                            43.284561
                        ],
                        [
                            21.889993,
                            43.284925
                        ],
                        [
                            21.888884,
                            43.285712
                        ],
                        [
                            21.889466,
                            43.2866
                        ],
                        [
                            21.8893,
                            43.287004
                        ],
                        [
                            21.888385,
                            43.288053
                        ],
                        [
                            21.887775,
                            43.28876
                        ],
                        [
                            21.888302,
                            43.290253
                        ],
                        [
                            21.888191,
                            43.290778
                        ],
                        [
                            21.887415,
                            43.29106
                        ],
                        [
                            21.886333,
                            43.290798
                        ],
                        [
                            21.885862,
                            43.290758
                        ],
                        [
                            21.885377,
                            43.290576
                        ],
                        [
                            21.884614,
                            43.290354
                        ]
                    ]
                ]
            },
            "properties": {
                "name": "Bubanj",
                "id": 1
            }
        },
        {
            "type": "Feature",
            "geometry": {
                "type": "Polygon",
                "coordinates": [
                    [
                        [
                            20.948638,
                            44.620446
                        ],
                        [
                            20.948121,
                            44.619551
                        ],
                        [
                            20.9474,
                            44.619262
                        ],
                        [
                            20.947456,
                            44.618631
                        ],
                        [
                            20.948232,
                            44.618223
                        ],
                        [
                            20.947788,
                            44.617394
                        ],
                        [
                            20.948269,
                            44.617197
                        ],
                        [
                            20.948786,
                            44.616329
                        ],
                        [
                            20.949932,
                            44.616013
                        ],
                        [
                            20.951206,
                            44.616526
                        ],
                        [
                            20.951798,
                            44.617197
                        ],
                        [
                            20.952389,
                            44.618091
                        ],
                        [
                            20.951262,
                            44.618683
                        ],
                        [
                            20.951059,
                            44.619854
                        ],
                        [
                            20.951059,
                            44.619854
                        ],
                        [
                            20.949839,
                            44.620248
                        ],
                        [
                            20.948638,
                            44.620446
                        ]
                    ]
                ]
            },
            "properties": {
                "name": "Radinac",
                "id": 2
            }
        },
        {
            "type": "Feature",
            "geometry": {
                "type": "Polygon",
                "coordinates": [
                    [
                        [
                            20.92477,
                            44.037342
                        ],
                        [
                            20.924404,
                            44.036879
                        ],
                        [
                            20.924302,
                            44.036443
                        ],
                        [
                            20.924587,
                            44.036022
                        ],
                        [
                            20.925458,
                            44.035669
                        ],
                        [
                            20.92644,
                            44.035259
                        ],
                        [
                            20.926409,
                            44.034849
                        ],
                        [
                            20.926772,
                            44.034763
                        ],
                        [
                            20.927232,
                            44.034838
                        ],
                        [
                            20.927591,
                            44.03497
                        ],
                        [
                            20.927929,
                            44.034883
                        ],
                        [
                            20.928468,
                            44.034553
                        ],
                        [
                            20.92907,
                            44.034348
                        ],
                        [
                            20.93016,
                            44.03437
                        ],
                        [
                            20.930825,
                            44.033972
                        ],
                        [
                            20.931255,
                            44.033557
                        ],
                        [
                            20.932014,
                            44.033249
                        ],
                        [
                            20.932641,
                            44.033799
                        ],
                        [
                            20.933303,
                            44.034125
                        ],
                        [
                            20.933425,
                            44.034463
                        ],
                        [
                            20.932101,
                            44.034851
                        ],
                        [
                            20.931074,
                            44.035477
                        ],
                        [
                            20.930621,
                            44.03604
                        ],
                        [
                            20.930012,
                            44.036679
                        ],
                        [
                            20.929228,
                            44.037154
                        ],
                        [
                            20.92841,
                            44.03758
                        ],
                        [
                            20.927626,
                            44.03783
                        ],
                        [
                            20.926634,
                            44.037956
                        ],
                        [
                            20.92578,
                            44.037918
                        ],
                        [
                            20.925241,
                            44.037805
                        ],
                        [
                            20.925241,
                            44.037805
                        ],
                        [
                            20.925241,
                            44.037805
                        ],
                        [
                            20.92477,
                            44.037342
                        ]
                    ]
                ]
            },
            "properties": {
                "name": "Jovanovac",
                "id": 3
            }
        },
        {
            "type": "Feature",
            "geometry": {
                "type": "Polygon",
                "coordinates": [
                    [
                        [
                            19.833664,
                            45.310537
                        ],
                        [
                            19.833936,
                            45.30977
                        ],
                        [
                            19.834346,
                            45.309359
                        ],
                        [
                            19.83532,
                            45.308701
                        ],
                        [
                            19.835865,
                            45.308728
                        ],
                        [
                            19.836664,
                            45.308153
                        ],
                        [
                            19.838943,
                            45.308057
                        ],
                        [
                            19.842255,
                            45.308071
                        ],
                        [
                            19.843931,
                            45.308262
                        ],
                        [
                            19.84549,
                            45.308276
                        ],
                        [
                            19.845499,
                            45.308277
                        ],
                        [
                            19.846843,
                            45.308017
                        ],
                        [
                            19.847798,
                            45.308359
                        ],
                        [
                            19.849201,
                            45.308469
                        ],
                        [
                            19.849902,
                            45.308976
                        ],
                        [
                            19.849824,
                            45.309277
                        ],
                        [
                            19.84924,
                            45.310004
                        ],
                        [
                            19.848928,
                            45.310442
                        ],
                        [
                            19.849454,
                            45.310808
                        ],
                        [
                            19.849629,
                            45.311438
                        ],
                        [
                            19.84922,
                            45.311932
                        ],
                        [
                            19.847506,
                            45.313124
                        ],
                        [
                            19.84659,
                            45.313631
                        ],
                        [
                            19.844784,
                            45.313687
                        ],
                        [
                            19.842972,
                            45.313249
                        ],
                        [
                            19.84118,
                            45.312413
                        ],
                        [
                            19.839185,
                            45.311704
                        ],
                        [
                            19.838094,
                            45.311457
                        ],
                        [
                            19.837568,
                            45.311773
                        ],
                        [
                            19.837159,
                            45.311937
                        ],
                        [
                            19.836341,
                            45.311663
                        ],
                        [
                            19.835971,
                            45.311087
                        ],
                        [
                            19.835113,
                            45.3108
                        ],
                        [
                            19.834471,
                            45.310676
                        ],
                        [
                            19.833664,
                            45.310537
                        ]
                    ]
                ]
            },
            "properties": {
                "name": "Novi Sad",
                "id": 4
            }
        },
        {
            "type": "Feature",
            "geometry": {
                "type": "Polygon",
                "coordinates": [
                    [
                        [
                            19.484324,
                            45.246123
                        ],
                        [
                            19.48654,
                            45.246399
                        ],
                        [
                            19.487118,
                            45.246748
                        ],
                        [
                            19.487476,
                            45.247194
                        ],
                        [
                            19.487338,
                            45.247601
                        ],
                        [
                            19.486953,
                            45.247911
                        ],
                        [
                            19.486154,
                            45.248047
                        ],
                        [
                            19.487171,
                            45.24896
                        ],
                        [
                            19.488934,
                            45.250201
                        ],
                        [
                            19.490394,
                            45.251035
                        ],
                        [
                            19.491358,
                            45.251636
                        ],
                        [
                            19.491165,
                            45.251849
                        ],
                        [
                            19.490091,
                            45.251365
                        ],
                        [
                            19.487916,
                            45.250244
                        ],
                        [
                            19.486952,
                            45.249895
                        ],
                        [
                            19.486058,
                            45.248902
                        ],
                        [
                            19.484571,
                            45.248631
                        ],
                        [
                            19.484324,
                            45.246123
                        ]
                    ]
                ]
            },
            "properties": {
                "name": "Backa palanka",
                "id": 5
            }
        },
        {
            "type": "Feature",
            "geometry": {
                "type": "Polygon",
                "coordinates": [
                    [
                        [
                            21.951736,
                            43.00079
                        ],
                        [
                            21.95102,
                            43.000757
                        ],
                        [
                            21.950666,
                            43.000716
                        ],
                        [
                            21.950316,
                            43.000659
                        ],
                        [
                            21.949971,
                            43.000586
                        ],
                        [
                            21.949634,
                            43.000497
                        ],
                        [
                            21.949304,
                            43.000392
                        ],
                        [
                            21.948985,
                            43.000273
                        ],
                        [
                            21.948676,
                            43.00014
                        ],
                        [
                            21.948379,
                            42.999992
                        ],
                        [
                            21.948095,
                            42.999831
                        ],
                        [
                            21.947826,
                            42.999658
                        ],
                        [
                            21.947573,
                            42.999472
                        ],
                        [
                            21.947335,
                            42.999275
                        ],
                        [
                            21.947115,
                            42.999068
                        ],
                        [
                            21.946914,
                            42.998851
                        ],
                        [
                            21.946731,
                            42.998625
                        ],
                        [
                            21.946568,
                            42.998391
                        ],
                        [
                            21.946426,
                            42.99815
                        ],
                        [
                            21.946304,
                            42.997903
                        ],
                        [
                            21.946204,
                            42.997651
                        ],
                        [
                            21.946126,
                            42.997395
                        ],
                        [
                            21.94607,
                            42.997136
                        ],
                        [
                            21.946036,
                            42.996875
                        ],
                        [
                            21.946025,
                            42.996613
                        ],
                        [
                            21.946036,
                            42.99635
                        ],
                        [
                            21.94607,
                            42.996089
                        ],
                        [
                            21.946126,
                            42.99583
                        ],
                        [
                            21.946204,
                            42.995574
                        ],
                        [
                            21.946305,
                            42.995322
                        ],
                        [
                            21.946426,
                            42.995075
                        ],
                        [
                            21.946569,
                            42.994834
                        ],
                        [
                            21.946731,
                            42.9946
                        ],
                        [
                            21.946914,
                            42.994374
                        ],
                        [
                            21.947116,
                            42.994157
                        ],
                        [
                            21.947336,
                            42.99395
                        ],
                        [
                            21.947573,
                            42.993753
                        ],
                        [
                            21.947827,
                            42.993568
                        ],
                        [
                            21.948096,
                            42.993394
                        ],
                        [
                            21.948379,
                            42.993233
                        ],
                        [
                            21.948676,
                            42.993086
                        ],
                        [
                            21.948985,
                            42.992952
                        ],
                        [
                            21.949305,
                            42.992833
                        ],
                        [
                            21.949634,
                            42.992729
                        ],
                        [
                            21.949971,
                            42.99264
                        ],
                        [
                            21.950316,
                            42.992567
                        ],
                        [
                            21.950666,
                            42.99251
                        ],
                        [
                            21.95102,
                            42.992469
                        ],
                        [
                            21.951378,
                            42.992444
                        ],
                        [
                            21.951736,
                            42.992436
                        ],
                        [
                            21.952095,
                            42.992444
                        ],
                        [
                            21.952452,
                            42.992469
                        ],
                        [
                            21.952806,
                            42.99251
                        ],
                        [
                            21.953156,
                            42.992567
                        ],
                        [
                            21.953501,
                            42.99264
                        ],
                        [
                            21.953838,
                            42.992729
                        ],
                        [
                            21.954168,
                            42.992833
                        ],
                        [
                            21.954487,
                            42.992952
                        ],
                        [
                            21.954796,
                            42.993086
                        ],
                        [
                            21.955093,
                            42.993233
                        ],
                        [
                            21.955376,
                            42.993394
                        ],
                        [
                            21.955646,
                            42.993568
                        ],
                        [
                            21.955899,
                            42.993753
                        ],
                        [
                            21.956136,
                            42.99395
                        ],
                        [
                            21.956356,
                            42.994157
                        ],
                        [
                            21.956558,
                            42.994374
                        ],
                        [
                            21.956741,
                            42.9946
                        ],
                        [
                            21.956904,
                            42.994834
                        ],
                        [
                            21.957046,
                            42.995075
                        ],
                        [
                            21.957168,
                            42.995322
                        ],
                        [
                            21.957268,
                            42.995574
                        ],
                        [
                            21.957346,
                            42.99583
                        ],
                        [
                            21.957402,
                            42.996089
                        ],
                        [
                            21.957436,
                            42.99635
                        ],
                        [
                            21.957447,
                            42.996613
                        ],
                        [
                            21.957436,
                            42.996875
                        ],
                        [
                            21.957402,
                            42.997136
                        ],
                        [
                            21.957346,
                            42.997395
                        ],
                        [
                            21.957268,
                            42.997651
                        ],
                        [
                            21.957168,
                            42.997903
                        ],
                        [
                            21.957046,
                            42.99815
                        ],
                        [
                            21.956904,
                            42.998391
                        ],
                        [
                            21.956741,
                            42.998625
                        ],
                        [
                            21.956558,
                            42.998851
                        ],
                        [
                            21.956357,
                            42.999068
                        ],
                        [
                            21.956137,
                            42.999275
                        ],
                        [
                            21.9559,
                            42.999472
                        ],
                        [
                            21.955646,
                            42.999658
                        ],
                        [
                            21.955377,
                            42.999831
                        ],
                        [
                            21.955093,
                            42.999992
                        ],
                        [
                            21.954796,
                            43.00014
                        ],
                        [
                            21.954488,
                            43.000273
                        ],
                        [
                            21.954168,
                            43.000392
                        ],
                        [
                            21.953839,
                            43.000497
                        ],
                        [
                            21.953501,
                            43.000586
                        ],
                        [
                            21.953157,
                            43.000659
                        ],
                        [
                            21.952806,
                            43.000716
                        ],
                        [
                            21.952452,
                            43.000757
                        ],
                        [
                            21.952095,
                            43.000782
                        ],
                        [
                            21.951736,
                            43.00079
                        ]
                    ]
                ]
            },
            "properties": {
                "name": "Leskovac krug",
                "id": 6
            }
        },
        {
            "type": "Feature",
            "geometry": {
                "type": "Polygon",
                "coordinates": [
                    [
                        [
                            19.885079,
                            43.871832
                        ],
                        [
                            19.884926,
                            43.869836
                        ],
                        [
                            19.884954,
                            43.869856
                        ],
                        [
                            19.885733,
                            43.869696
                        ],
                        [
                            19.887736,
                            43.869676
                        ],
                        [
                            19.889836,
                            43.869876
                        ],
                        [
                            19.890949,
                            43.870157
                        ],
                        [
                            19.891311,
                            43.870699
                        ],
                        [
                            19.891394,
                            43.871431
                        ],
                        [
                            19.890532,
                            43.871912
                        ],
                        [
                            19.890031,
                            43.872303
                        ],
                        [
                            19.88864,
                            43.872012
                        ],
                        [
                            19.888112,
                            43.872123
                        ],
                        [
                            19.885914,
                            43.872343
                        ],
                        [
                            19.885079,
                            43.871832
                        ]
                    ]
                ]
            },
            "properties": {
                "name": "Duboko",
                "id": 7
            }
        }
    ]
}